{
"type": "FeatureCollection",
"name": "locais_zambe",
"crs": { "type": "name", "properties": { "name": "urn:ogc:def:crs:OGC:1.3:CRS84" } },
"features": [
{ "type": "Feature", "properties": { "id_ponto": 1, "nome_local": "Escola Municipal Monteiro Lobato", "categoria": "Projeto Social", "grupo": "Associação Cultural Zambê Capoeira", "responsavel": "Instrutor Aruandê", "dias_treino": "Segunda e Quarta-feira", "horario": "18:00:00", "publico": "Infantil", "contato": "63 98441-2326", "status_ativo": "SIM", "lat": -10.2452, "log": -48.3205 }, "geometry": { "type": "Point", "coordinates": [ -48.3205, -10.2452 ] } },
{ "type": "Feature", "properties": { "id_ponto": 2, "nome_local": "Escola Municipal Padre Josimo", "categoria": "Projeto Social", "grupo": "Associação Cultural Zambê Capoeira", "responsavel": "Professor Gigante", "dias_treino": "Terça e Quinta-feira", "horario": "17:15:00", "publico": "Infantil", "contato": "63 99998-9033", "status_ativo": "SIM", "lat": -10.1702, "log": -48.3353 }, "geometry": { "type": "Point", "coordinates": [ -48.3353, -10.1702 ] } },
{ "type": "Feature", "properties": { "id_ponto": 3, "nome_local": "Escola Municipal Daniel Batista", "categoria": "Projeto Social", "grupo": "Associação Cultural Zambê Capoeira", "responsavel": "Mestre Curió", "dias_treino": "Terça e Quinta-feira", "horario": "17:10:00", "publico": "Infantil", "contato": "69 98429-2268", "status_ativo": "SIM", "lat": -10.1651, "log": -48.3084 }, "geometry": { "type": "Point", "coordinates": [ -48.3084, -10.1651 ] } },
{ "type": "Feature", "properties": { "id_ponto": 4, "nome_local": "Escola Municipal Fidêncio Bogo", "categoria": "Instituição de Ensino", "grupo": "Associação Cultural Zambê Capoeira", "responsavel": "Mestre Curió", "dias_treino": "Segunda a Sexta-feira", "horario": "08:00:00", "publico": "Infantil e Adolecentes", "contato": "69 98429-2268", "status_ativo": "SIM", "lat": -10.2441, "log": -48.2214 }, "geometry": { "type": "Point", "coordinates": [ -48.221595395616951, -10.244104299586319 ] } },
{ "type": "Feature", "properties": { "id_ponto": 5, "nome_local": "Centro de Treinamento Sonho Meu e Região", "categoria": "Projeto Social", "grupo": "Associação Cultural Zambê Capoeira", "responsavel": "Professor Shampoo e Professor Cachorro Doido ", "dias_treino": "Segunda Quarta e Sexta-feira", "horario": "19:30:00", "publico": "Misto", "contato": "63 9119-9931 e 63 99292-2769", "status_ativo": "SIM", "lat": -10.117, "log": -48.3234 }, "geometry": { "type": "Point", "coordinates": [ -48.3234, -10.117 ] } },
{ "type": "Feature", "properties": { "id_ponto": 6, "nome_local": "Parque dos Povos Indígenas ", "categoria": "Núcleo de Treino", "grupo": "Associação Cultural Zambê Capoeira", "responsavel": "Mestre Curió", "dias_treino": "Terça e Quinta-feira", "horario": "19:30:00", "publico": "Misto", "contato": "69 98429-2268", "status_ativo": "SIM", "lat": -10.174, "log": -48.3279 }, "geometry": { "type": "Point", "coordinates": [ -48.3279, -10.174 ] } }
]
}
